{"fetched_at":"2026-07-22T07:09:27.047Z","source":"https://celestrak.org/NORAD/elements/gp.php?GROUP=spire&FORMAT=JSON","constellation":"spire","records":[{"OBJECT_NAME":"LEMUR-2-VALHALLA","OBJECT_ID":"2024-022B","EPOCH":"2026-07-21T02:51:46.725984","CLASSIFICATION_TYPE":"U","MEAN_MOTION":15.40602327,"ECCENTRICITY":0.00085986,"INCLINATION":97.4082,"RA_OF_ASC_NODE":52.5373,"ARG_OF_PERICENTER":3.2856,"MEAN_ANOMALY":356.8445,"EPHEMERIS_TYPE":0,"NORAD_CAT_ID":58900,"ELEMENT_SET_NO":999,"REV_AT_EPOCH":13749,"BSTAR":0.00029563612,"MEAN_MOTION_DOT":0.00011964,"MEAN_MOTION_DDOT":0},{"OBJECT_NAME":"LEMUR-2-CAEL","OBJECT_ID":"2024-022E","EPOCH":"2026-07-21T03:56:54.520224","CLASSIFICATION_TYPE":"U","MEAN_MOTION":15.41983052,"ECCENTRICITY":0.0006532,"INCLINATION":97.4059,"RA_OF_ASC_NODE":53.5807,"ARG_OF_PERICENTER":346.709,"MEAN_ANOMALY":13.3984,"EPHEMERIS_TYPE":0,"NORAD_CAT_ID":58903,"ELEMENT_SET_NO":999,"REV_AT_EPOCH":13757,"BSTAR":0.00031680859,"MEAN_MOTION_DOT":0.00013425,"MEAN_MOTION_DDOT":0},{"OBJECT_NAME":"LEMUR-2-JOHNNYTRUONG","OBJECT_ID":"2024-043BA","EPOCH":"2026-07-21T08:45:40.642272","CLASSIFICATION_TYPE":"U","MEAN_MOTION":15.62913525,"ECCENTRICITY":0.00037166,"INCLINATION":97.5399,"RA_OF_ASC_NODE":356.2569,"ARG_OF_PERICENTER":74.4334,"MEAN_ANOMALY":285.7334,"EPHEMERIS_TYPE":0,"NORAD_CAT_ID":59146,"ELEMENT_SET_NO":999,"REV_AT_EPOCH":13337,"BSTAR":0.00044703859,"MEAN_MOTION_DOT":0.00040411,"MEAN_MOTION_DDOT":0},{"OBJECT_NAME":"LEMUR-2-TOMATOKECHUP","OBJECT_ID":"2024-149D","EPOCH":"2026-07-21T04:05:46.578336","CLASSIFICATION_TYPE":"U","MEAN_MOTION":15.36660114,"ECCENTRICITY":0.00034432,"INCLINATION":97.3785,"RA_OF_ASC_NODE":284.318,"ARG_OF_PERICENTER":111.4342,"MEAN_ANOMALY":248.7269,"EPHEMERIS_TYPE":0,"NORAD_CAT_ID":60471,"ELEMENT_SET_NO":999,"REV_AT_EPOCH":10738,"BSTAR":0.00022832386,"MEAN_MOTION_DOT":0.00008094,"MEAN_MOTION_DDOT":0},{"OBJECT_NAME":"LEMUR-2-STELLA","OBJECT_ID":"2024-149BT","EPOCH":"2026-07-21T11:47:36.942720","CLASSIFICATION_TYPE":"U","MEAN_MOTION":15.12456303,"ECCENTRICITY":0.00014352,"INCLINATION":97.6726,"RA_OF_ASC_NODE":285.1114,"ARG_OF_PERICENTER":121.1366,"MEAN_ANOMALY":239.0005,"EPHEMERIS_TYPE":0,"NORAD_CAT_ID":60533,"ELEMENT_SET_NO":999,"REV_AT_EPOCH":10568,"BSTAR":0.0005747447,"MEAN_MOTION_DOT":0.00009934,"MEAN_MOTION_DDOT":0},{"OBJECT_NAME":"LEMUR-2-MARHISYAM","OBJECT_ID":"2024-149BW","EPOCH":"2026-07-21T11:38:05.944992","CLASSIFICATION_TYPE":"U","MEAN_MOTION":15.11853238,"ECCENTRICITY":0.00021705,"INCLINATION":97.687,"RA_OF_ASC_NODE":285.5876,"ARG_OF_PERICENTER":59.8022,"MEAN_ANOMALY":300.3422,"EPHEMERIS_TYPE":0,"NORAD_CAT_ID":60536,"ELEMENT_SET_NO":999,"REV_AT_EPOCH":10566,"BSTAR":0.00049723178,"MEAN_MOTION_DOT":0.0000844,"MEAN_MOTION_DDOT":0},{"OBJECT_NAME":"LEMUR-2-AHMED-ASRAR","OBJECT_ID":"2024-149DN","EPOCH":"2026-07-21T05:17:27.157344","CLASSIFICATION_TYPE":"U","MEAN_MOTION":15.13387282,"ECCENTRICITY":0.00017317,"INCLINATION":97.6995,"RA_OF_ASC_NODE":287.5489,"ARG_OF_PERICENTER":180.235,"MEAN_ANOMALY":179.888,"EPHEMERIS_TYPE":0,"NORAD_CAT_ID":60576,"ELEMENT_SET_NO":999,"REV_AT_EPOCH":10571,"BSTAR":0.0004606482,"MEAN_MOTION_DOT":0.00008156,"MEAN_MOTION_DDOT":0},{"OBJECT_NAME":"LEMUR-2-LLOYD","OBJECT_ID":"2024-149DP","EPOCH":"2026-07-21T12:16:04.264608","CLASSIFICATION_TYPE":"U","MEAN_MOTION":15.09823724,"ECCENTRICITY":0.00041871,"INCLINATION":97.6732,"RA_OF_ASC_NODE":283.6712,"ARG_OF_PERICENTER":54.5132,"MEAN_ANOMALY":305.6487,"EPHEMERIS_TYPE":0,"NORAD_CAT_ID":60577,"ELEMENT_SET_NO":999,"REV_AT_EPOCH":10557,"BSTAR":0.00059556254,"MEAN_MOTION_DOT":0.00009573,"MEAN_MOTION_DDOT":0},{"OBJECT_NAME":"LEMUR-2-SQUIRRELCOMM","OBJECT_ID":"2024-149DQ","EPOCH":"2026-07-20T23:28:58.880064","CLASSIFICATION_TYPE":"U","MEAN_MOTION":15.07484012,"ECCENTRICITY":0.0004012,"INCLINATION":97.6699,"RA_OF_ASC_NODE":282.7893,"ARG_OF_PERICENTER":298.5482,"MEAN_ANOMALY":61.5341,"EPHEMERIS_TYPE":0,"NORAD_CAT_ID":60578,"ELEMENT_SET_NO":999,"REV_AT_EPOCH":10549,"BSTAR":0.00033278749,"MEAN_MOTION_DOT":0.00004986,"MEAN_MOTION_DDOT":0},{"OBJECT_NAME":"LEMUR-2-SIERRINI","OBJECT_ID":"2024-149DR","EPOCH":"2026-07-21T12:21:16.513344","CLASSIFICATION_TYPE":"U","MEAN_MOTION":15.11595047,"ECCENTRICITY":0.00060577,"INCLINATION":97.6829,"RA_OF_ASC_NODE":285.2731,"ARG_OF_PERICENTER":73.7212,"MEAN_ANOMALY":286.4684,"EPHEMERIS_TYPE":0,"NORAD_CAT_ID":60579,"ELEMENT_SET_NO":999,"REV_AT_EPOCH":10564,"BSTAR":0.00061633055,"MEAN_MOTION_DOT":0.00010409,"MEAN_MOTION_DDOT":0},{"OBJECT_NAME":"LEMUR-2-WILSON","OBJECT_ID":"2025-009CP","EPOCH":"2026-07-21T05:23:17.994912","CLASSIFICATION_TYPE":"U","MEAN_MOTION":14.95291662,"ECCENTRICITY":0.00016,"INCLINATION":97.7015,"RA_OF_ASC_NODE":280.0923,"ARG_OF_PERICENTER":288.388,"MEAN_ANOMALY":71.7167,"EPHEMERIS_TYPE":0,"NORAD_CAT_ID":62694,"ELEMENT_SET_NO":999,"REV_AT_EPOCH":8244,"BSTAR":0.000160814,"MEAN_MOTION_DOT":0.00001714,"MEAN_MOTION_DDOT":0},{"OBJECT_NAME":"LEMUR-2-STAR-FOX","OBJECT_ID":"2025-009CR","EPOCH":"2026-07-21T04:27:28.829376","CLASSIFICATION_TYPE":"U","MEAN_MOTION":15.02890489,"ECCENTRICITY":0.00015834,"INCLINATION":97.69,"RA_OF_ASC_NODE":283.5498,"ARG_OF_PERICENTER":17.9972,"MEAN_ANOMALY":342.1308,"EPHEMERIS_TYPE":0,"NORAD_CAT_ID":62696,"ELEMENT_SET_NO":999,"REV_AT_EPOCH":8266,"BSTAR":0.00043476551,"MEAN_MOTION_DOT":0.00005773,"MEAN_MOTION_DDOT":0},{"OBJECT_NAME":"LEMUR-2-ARIANNA","OBJECT_ID":"2025-009CU","EPOCH":"2026-07-21T04:25:15.391488","CLASSIFICATION_TYPE":"U","MEAN_MOTION":15.02894847,"ECCENTRICITY":0.00018928,"INCLINATION":97.6841,"RA_OF_ASC_NODE":283.2958,"ARG_OF_PERICENTER":27.8546,"MEAN_ANOMALY":332.278,"EPHEMERIS_TYPE":0,"NORAD_CAT_ID":62699,"ELEMENT_SET_NO":999,"REV_AT_EPOCH":8266,"BSTAR":0.00045469738,"MEAN_MOTION_DOT":0.00006042,"MEAN_MOTION_DDOT":0},{"OBJECT_NAME":"LEMUR-2-ALISIA","OBJECT_ID":"2025-009DB","EPOCH":"2026-07-21T05:19:24.562848","CLASSIFICATION_TYPE":"U","MEAN_MOTION":15.03228747,"ECCENTRICITY":0.00049335,"INCLINATION":97.6959,"RA_OF_ASC_NODE":284.1703,"ARG_OF_PERICENTER":113.1534,"MEAN_ANOMALY":247.0211,"EPHEMERIS_TYPE":0,"NORAD_CAT_ID":62706,"ELEMENT_SET_NO":999,"REV_AT_EPOCH":10527,"BSTAR":0.00042690728,"MEAN_MOTION_DOT":0.0000572,"MEAN_MOTION_DDOT":0},{"OBJECT_NAME":"LEMUR-2-ROUNDTRIPPER","OBJECT_ID":"2025-009DG","EPOCH":"2026-07-21T11:43:55.148736","CLASSIFICATION_TYPE":"U","MEAN_MOTION":15.042925,"ECCENTRICITY":0.00043961,"INCLINATION":97.7239,"RA_OF_ASC_NODE":285.1289,"ARG_OF_PERICENTER":52.1825,"MEAN_ANOMALY":307.9798,"EPHEMERIS_TYPE":0,"NORAD_CAT_ID":62711,"ELEMENT_SET_NO":999,"REV_AT_EPOCH":8278,"BSTAR":0.0004902445,"MEAN_MOTION_DOT":0.00006768,"MEAN_MOTION_DDOT":0},{"OBJECT_NAME":"LEMUR-2-MYNAMEISJEFF","OBJECT_ID":"2025-009DH","EPOCH":"2026-07-21T11:41:47.654304","CLASSIFICATION_TYPE":"U","MEAN_MOTION":15.04285045,"ECCENTRICITY":0.00043418,"INCLINATION":97.7286,"RA_OF_ASC_NODE":285.5292,"ARG_OF_PERICENTER":84.9538,"MEAN_ANOMALY":275.2183,"EPHEMERIS_TYPE":0,"NORAD_CAT_ID":62712,"ELEMENT_SET_NO":999,"REV_AT_EPOCH":8278,"BSTAR":0.00051071588,"MEAN_MOTION_DOT":0.00007052,"MEAN_MOTION_DDOT":0}]}
